TANSTAAFL-2             
1 62378U 24247B   26067.20753490  .00013897  00000+0  50872-3 0  9998
2 62378  44.9880 125.0934 0003072 298.8909  61.1666 15.28016845 67506
STARLINK-34226          
1 64494U 25133Y   26068.45702711  .00016612  00000+0  57171-3 0  9999
2 64494  53.1600 117.8139 0001045  85.5253 274.5868 15.30201777 40986
